CCSDS_OEM_VERS = 1.0
CREATION_DATE  = 2017-05-11T11:17:38
ORIGINATOR     = GMAT USER

META_START
OBJECT_NAME          = MOPSSat_alt_35785_km_RAAN_90_097
OBJECT_ID            = SatId
CENTER_NAME          = Earth
REF_FRAME            = EME2000
TIME_SYSTEM          = UTC
START_TIME           = 2017-01-01T00:00:00.000
USEABLE_START_TIME   = 2017-01-01T00:00:00.000
USEABLE_STOP_TIME    = 2017-01-02T00:00:00.000
STOP_TIME            = 2017-01-02T00:00:00.000
INTERPOLATION        = Lagrange
INTERPOLATION_DEGREE = 7 
META_STOP


                                                                                   

2017-01-01T04:44:10.000  -4.084630102481317e+04   5.400175574155696e+03   1.144697976514875e+00  -7.139725394771882e-01  -3.063532698052688e+00   5.300639578753357e-05
2017-01-01T04:44:20.000  -4.085342911088293e+04   5.369538712230478e+03   1.145227837182048e+00  -7.116447196887786e-01  -3.063839498037674e+00   5.296573377250439e-05
2017-01-01T04:44:30.000  -4.086053391931371e+04   5.338898791409727e+03   1.145757291053431e+00  -7.093170135402018e-01  -3.064144484069699e+00   5.292503675197122e-05
2017-01-01T04:44:40.000  -4.086761545132569e+04   5.308255829503340e+03   1.146286337784744e+00  -7.069894224105204e-01  -3.064447656770484e+00   5.288430474772769e-05
2017-01-01T04:44:50.000  -4.087467370807863e+04   5.277609844625354e+03   1.146814977026518e+00  -7.046619477011057e-01  -3.064749016759424e+00   5.284353778198084e-05
2017-01-01T04:45:00.000  -4.088170869074327e+04   5.246960854899724e+03   1.147343208429239e+00  -7.023345908132423e-01  -3.065048564656762e+00   5.280273587696164e-05
2017-01-01T04:45:10.000  -4.088872040050004e+04   5.216308878460154e+03   1.147871031643332e+00  -7.000073531481319e-01  -3.065346301083485e+00   5.276189905492401e-05
2017-01-01T04:45:20.000  -4.089570883847465e+04   5.185653933745208e+03   1.148398446314132e+00  -6.976802361292568e-01  -3.065642226658694e+00   5.272102733853818e-05
2017-01-01T04:45:30.000  -4.090267400582607e+04   5.154996039100942e+03   1.148925452088672e+00  -6.953532411722538e-01  -3.065936342003242e+00   5.268012075036154e-05
2017-01-01T04:45:40.000  -4.090961590371071e+04   5.124335212940357e+03   1.149452048612954e+00  -6.930263696970088e-01  -3.066228647738233e+00   5.263917931305041e-05
2017-01-01T04:45:50.000  -4.091653453344182e+04   5.093671473039896e+03   1.149978235544030e+00  -6.906996230742671e-01  -3.066519144491734e+00   5.259820304842560e-05
2017-01-01T04:46:00.000  -4.092342989632955e+04   5.063004837244691e+03   1.150504012537886e+00  -6.883730026791604e-01  -3.066807832892033e+00   5.255719197840892e-05
2017-01-01T04:46:10.000  -4.093030199372243e+04   5.032335323286516e+03   1.151029379252574e+00  -6.860465098773868e-01  -3.067094713569390e+00   5.251614612478217e-05
2017-01-01T04:46:20.000  -4.093715082689495e+04   5.001662949273173e+03   1.151554335339775e+00  -6.837201460623739e-01  -3.067379787151254e+00   5.247506550983392e-05
2017-01-01T04:46:30.000  -4.094397639714079e+04   4.970987733284682e+03   1.152078880451770e+00  -6.813939126246095e-01  -3.067663054266240e+00   5.243395015582727e-05
2017-01-01T04:46:40.000  -4.095077870575120e+04   4.940309693466364e+03   1.152603014239832e+00  -6.790678109587118e-01  -3.067944515543202e+00   5.239280008512167e-05
2017-01-01T04:46:50.000  -4.095755775402462e+04   4.909628847992918e+03   1.153126736354869e+00  -6.767418424606836e-01  -3.068224171611694e+00   5.235161532013194e-05
2017-01-01T04:47:00.000  -4.096431354326932e+04   4.878945215051082e+03   1.153650046447700e+00  -6.744160085266152e-01  -3.068502023102028e+00   5.231039588329823e-05
2017-01-01T04:47:10.000  -4.097104607481131e+04   4.848258812802903e+03   1.154172944169672e+00  -6.720903105499023e-01  -3.068778070645594e+00   5.226914179703857e-05
2017-01-01T04:47:20.000  -4.097775534999953e+04   4.817569659368713e+03   1.154695429172993e+00  -6.697647499199372e-01  -3.069052314875130e+00   5.222785308372292e-05
2017-01-01T04:47:30.000  -4.098444137021212e+04   4.786877772790803e+03   1.155217501111300e+00  -6.674393280193778e-01  -3.069324756424903e+00   5.218652976562690e-05
2017-01-01T04:47:40.000  -4.099110413683673e+04   4.756183171126719e+03   1.155739159638094e+00  -6.651140462312100e-01  -3.069595395929938e+00   5.214517186505656e-05
2017-01-01T04:47:50.000  -4.099774365135600e+04   4.725485872044551e+03   1.156260404413576e+00  -6.627889059081219e-01  -3.069864234029413e+00   5.210377940380480e-05
2017-01-01T04:48:00.000  -4.100435991524345e+04   4.694785893313291e+03   1.156781235096350e+00  -6.604639084096194e-01  -3.070131271362492e+00   5.206235240381031e-05
2017-01-01T04:48:10.000  -4.101095293000310e+04   4.664083252617525e+03   1.157301651346566e+00  -6.581390550879952e-01  -3.070396508569925e+00   5.202089088690865e-05
2017-01-01T04:48:20.000  -4.101752269701502e+04   4.633377968275243e+03   1.157821652813746e+00  -6.558143473426885e-01  -3.070659946287820e+00   5.197939487579694e-05
2017-01-01T04:48:30.000  -4.102406921768995e+04   4.602670058520031e+03   1.158341239148960e+00  -6.534897865659247e-01  -3.070921585153878e+00   5.193786439306936e-05
2017-01-01T04:48:40.000  -4.103059249342918e+04   4.571959541686307e+03   1.158860410001680e+00  -6.511653741567490e-01  -3.071181425805762e+00   5.189629946146546e-05
2017-01-01T04:48:50.000  -4.103709252573118e+04   4.541246435719235e+03   1.159379165028115e+00  -6.488411114838928e-01  -3.071439468885445e+00   5.185470010321440e-05
2017-01-01T04:49:00.000  -4.104356931610320e+04   4.510530758579099e+03   1.159897503884323e+00  -6.465169999164193e-01  -3.071695715035590e+00   5.181306634057466e-05
2017-01-01T04:49:10.000  -4.105002286608164e+04   4.479812528148057e+03   1.160415426227805e+00  -6.441930408166583e-01  -3.071950164900382e+00   5.177139819571021e-05
2017-01-01T04:49:20.000  -4.105645317722284e+04   4.449091762266119e+03   1.160932931716861e+00  -6.418692355429509e-01  -3.072202819125095e+00   5.172969569073378e-05
2017-01-01T04:49:30.000  -4.106286025110073e+04   4.418368478748474e+03   1.161450020010325e+00  -6.395455854509440e-01  -3.072453678356063e+00   5.168795884773507e-05
2017-01-01T04:49:40.000  -4.106924408929911e+04   4.387642695422241e+03   1.161966690766944e+00  -6.372220918963689e-01  -3.072702743240357e+00   5.164618768882986e-05
2017-01-01T04:49:50.000  -4.107560469340676e+04   4.356914430143524e+03   1.162482943645069e+00  -6.348987562363529e-01  -3.072950014425558e+00   5.160438223618314e-05
2017-01-01T04:50:00.000  -4.108194206501156e+04   4.326183700833749e+03   1.162998778302072e+00  -6.325755798321426e-01  -3.073195492559575e+00   5.156254251205893e-05
2017-01-01T04:50:10.000  -4.108825620571902e+04   4.295450525386223e+03   1.163514194395904e+00  -6.302525640420503e-01  -3.073439178291340e+00   5.152066853869274e-05
2017-01-01T04:50:20.000  -4.109454711707144e+04   4.264714922071326e+03   1.164029191578342e+00  -6.279297102520486e-01  -3.073681072267780e+00   5.147876033884580e-05
2017-01-01T04:50:30.000  -4.110081480064635e+04   4.233976909045532e+03   1.164543769503183e+00  -6.256070198386923e-01  -3.073921175137522e+00   5.143681793513377e-05
2017-01-01T04:50:40.000  -4.110705925801968e+04   4.203236504533957e+03   1.165057927823188e+00  -6.232844941829097e-01  -3.074159487549492e+00   5.139484135027629e-05
2017-01-01T04:50:50.000  -4.111328049090956e+04   4.172493726123269e+03   1.165571666201916e+00  -6.209621346165743e-01  -3.074396010158412e+00   5.135283060613086e-05
2017-01-01T04:51:00.000  -4.111947850103264e+04   4.141748591466938e+03   1.166084984301924e+00  -6.186399424758002e-01  -3.074630743619301e+00   5.131078572465651e-05
2017-01-01T04:51:10.000  -4.112565329013706e+04   4.111001118125479e+03   1.166597881787439e+00  -6.163179190888609e-01  -3.074863688588744e+00   5.126870672769551e-05
2017-01-01T04:51:20.000  -4.113180485991919e+04   4.080251323964335e+03   1.167110358317667e+00  -6.139960658062863e-01  -3.075094845721632e+00   5.122659363751657e-05
2017-01-01T04:51:30.000  -4.113793321208639e+04   4.049499226858545e+03   1.167622413551778e+00  -6.116743839785136e-01  -3.075324215673651e+00   5.118444647641177e-05
2017-01-01T04:51:40.000  -4.114403834835562e+04   4.018744844692618e+03   1.168134047148885e+00  -6.093528749558940e-01  -3.075551799101180e+00   5.114226526669607e-05
2017-01-01T04:51:50.000  -4.115012027039783e+04   3.987988195656530e+03   1.168645258763182e+00  -6.070315401109942e-01  -3.075777596659337e+00   5.110005003111260e-05
2017-01-01T04:52:00.000  -4.115617897991413e+04   3.957229297847130e+03   1.169156048050516e+00  -6.047103808085503e-01  -3.076001609004705e+00   5.105780079228708e-05
2017-01-01T04:52:10.000  -4.116221447860534e+04   3.926468169425111e+03   1.169666414665789e+00  -6.023893984173069e-01  -3.076223836794221e+00   5.101551757294205e-05
2017-01-01T04:52:20.000  -4.116822676830836e+04   3.895704827920847e+03   1.170176358274479e+00  -6.000685942576398e-01  -3.076444280690201e+00   5.097320039494830e-05
2017-01-01T04:52:30.000  -4.117421585085954e+04   3.864939290928517e+03   1.170685878541116e+00  -5.977479696539360e-01  -3.076662941355292e+00   5.093084928027321e-05
2017-01-01T04:52:40.000  -4.118018172812604e+04   3.834171575949199e+03   1.171194975131896e+00  -5.954275259227462e-01  -3.076879819453655e+00   5.088846425076764e-05
2017-01-01T04:52:50.000  -4.118612440192522e+04   3.803401700789046e+03   1.171703647708027e+00  -5.931072644028640e-01  -3.077094915647892e+00   5.084604532870474e-05
2017-01-01T04:53:00.000  -4.119204387408550e+04   3.772629683263738e+03   1.172211895930688e+00  -5.907871864329880e-01  -3.077308230601387e+00   5.080359253638262e-05
2017-01-01T04:53:10.000  -4.119794014644480e+04   3.741855541198363e+03   1.172719719461000e+00  -5.884672933517314e-01  -3.077519764978213e+00   5.076110589612046e-05
